{"type": "FeatureCollection", "features": [ {"type": "Feature", "properties": {"norad_id": 33619, "name": "FENGYUN 1C DEB", "group": "fengyun-1c-debris", "lat": -7.790237710177704, "lon": -122.66363279001061, "alt_km": 868.7715165242344, "timestamp": "2025-12-15T04:01:20.738233+00:00", "meta": {"OBJECT_NAME": "FENGYUN 1C DEB", "OBJECT_ID": "1999-025DDC", "EPOCH": "2025-12-13T22:20:38.013792", "MEAN_MOTION": 14.17515284, "ECCENTRICITY": 0.00507436, "INCLINATION": 98.8617, "RA_OF_ASC_NODE": 57.3264, "ARG_OF_PERICENTER": 42.7698, "MEAN_ANOMALY": 317.7408, "EPHEMERIS_TYPE": 0, "CLASSIFICATION_TYPE": "U", "NORAD_CAT_ID": 33619, "ELEMENT_SET_NO": 999, "REV_AT_EPOCH": 63641, "BSTAR": 0.0015412823, "MEAN_MOTION_DOT": 3.124e-05, "MEAN_MOTION_DDOT": 0}, "tle": {"line1": "1 33619U 99025DDC 25347.93099553  .00003124  00000+0  15413-2 0  9996", "line2": "2 33619  98.8617  57.3264 0050743  42.7698 317.7408 14.17515284636413"}}, "geometry": {"type": "Point", "coordinates": [-122.66363279001061, -7.790237710177704]}}, {"type": "Feature", "properties": {"norad_id": 33621, "name": "FENGYUN 1C DEB", "group": "fengyun-1c-debris", "lat": 66.47695581728361, "lon": 38.92313685836552, "alt_km": 1024.8921899742227, "timestamp": "2025-12-15T04:01:20.738243+00:00", "meta": {"OBJECT_NAME": "FENGYUN 1C DEB", "OBJECT_ID": "1999-025DDE", "EPOCH": "2025-12-10T20:17:14.702784", "MEAN_MOTION": 14.19482835, "ECCENTRICITY": 0.02846988, "INCLINATION": 98.1391, "RA_OF_ASC_NODE": 195.7496, "ARG_OF_PERICENTER": 300.0128, "MEAN_ANOMALY": 57.3079, "EPHEMERIS_TYPE": 0, "CLASSIFICATION_TYPE": "U", "NORAD_CAT_ID": 33621, "ELEMENT_SET_NO": 999, "REV_AT_EPOCH": 64217, "BSTAR": 0.00099524636, "MEAN_MOTION_DOT": 3.099e-05, "MEAN_MOTION_DDOT": 0}, "tle": {"line1": "1 33621U 99025DDE 25344.84530906  .00003099  00000+0  99525-3 0  9996", "line2": "2 33621  98.1391 195.7496 0284698 300.0128  57.3079 14.19482835642176"}}, "geometry": {"type": "Point", "coordinates": [38.92313685836552, 66.47695581728361]}}, {"type": "Feature", "properties": {"norad_id": 33625, "name": "FENGYUN 1C DEB", "group": "fengyun-1c-debris", "lat": -5.761326596452715, "lon": 100.80429443664289, "alt_km": 801.2245780487874, "timestamp": "2025-12-15T04:01:20.738253+00:00", "meta": {"OBJECT_NAME": "FENGYUN 1C DEB", "OBJECT_ID": "1999-025DDJ", "EPOCH": "2025-12-13T12:36:07.794144", "MEAN_MOTION": 14.61020731, "ECCENTRICITY": 0.02258414, "INCLINATION": 98.6212, "RA_OF_ASC_NODE": 98.2156, "ARG_OF_PERICENTER": 132.8107, "MEAN_ANOMALY": 229.2324, "EPHEMERIS_TYPE": 0, "CLASSIFICATION_TYPE": "U", "NORAD_CAT_ID": 33625, "ELEMENT_SET_NO": 999, "REV_AT_EPOCH": 61402, "BSTAR": 0.0021929807, "MEAN_MOTION_DOT": 0.00015444, "MEAN_MOTION_DDOT": 0}, "tle": {"line1": "1 33625U 99025DDJ 25347.52509021  .00015444  00000+0  21930-2 0  9993", "line2": "2 33625  98.6212  98.2156 0225841 132.8107 229.2324 14.61020731614026"}}, "geometry": {"type": "Point", "coordinates": [100.80429443664289, -5.761326596452715]}}, {"type": "Feature", "properties": {"norad_id": 33630, "name": "FENGYUN 1C DEB", "group": "fengyun-1c-debris", "lat": 46.020207290413104, "lon": -75.67056027500894, "alt_km": 797.7419926333141, "timestamp": "2025-12-15T04:01:20.738263+00:00", "meta": {"OBJECT_NAME": "FENGYUN 1C DEB", "OBJECT_ID": "1999-025DDP", "EPOCH": "2025-12-09T13:35:56.277312", "MEAN_MOTION": 14.17713216, "ECCENTRICITY": 0.0135528, "INCLINATION": 98.6166, "RA_OF_ASC_NODE": 89.8546, "ARG_OF_PERICENTER": 77.2482, "MEAN_ANOMALY": 284.3802, "EPHEMERIS_TYPE": 0, "CLASSIFICATION_TYPE": "U", "NORAD_CAT_ID": 33630, "ELEMENT_SET_NO": 999, "REV_AT_EPOCH": 64366, "BSTAR": 0.00061826, "MEAN_MOTION_DOT": 1.337e-05, "MEAN_MOTION_DDOT": 0}, "tle": {"line1": "1 33630U 99025DDP 25343.56662358  .00001337  00000+0  61826-3 0  9997", "line2": "2 33630  98.6166  89.8546 0135528  77.2482 284.3802 14.17713216643662"}}, "geometry": {"type": "Point", "coordinates": [-75.67056027500894, 46.020207290413104]}}, {"type": "Feature", "properties": {"norad_id": 33633, "name": "FENGYUN 1C DEB", "group": "fengyun-1c-debris", "lat": -8.012461676148973, "lon": -97.79452465474934, "alt_km": 787.8842969487823, "timestamp": "2025-12-15T04:01:20.738273+00:00", "meta": {"OBJECT_NAME": "FENGYUN 1C DEB", "OBJECT_ID": "1999-025DDS", "EPOCH": "2025-12-14T05:17:20.235840", "MEAN_MOTION": 14.19354186, "ECCENTRICITY": 0.00834952, "INCLINATION": 99.0564, "RA_OF_ASC_NODE": 82.5239, "ARG_OF_PERICENTER": 146.6641, "MEAN_ANOMALY": 243.3221, "EPHEMERIS_TYPE": 0, "CLASSIFICATION_TYPE": "U", "NORAD_CAT_ID": 33633, "ELEMENT_SET_NO": 999, "REV_AT_EPOCH": 90732, "BSTAR": 0.0025593474, "MEAN_MOTION_DOT": 5.525e-05, "MEAN_MOTION_DDOT": 0}, "tle": {"line1": "1 33633U 99025DDS 25348.22037310  .00005525  00000+0  25593-2 0  9995", "line2": "2 33633  99.0564  82.5239 0083495 146.6641 243.3221 14.19354186907329"}}, "geometry": {"type": "Point", "coordinates": [-97.79452465474934, -8.012461676148973]}}, {"type": "Feature", "properties": {"norad_id": 33637, "name": "FENGYUN 1C DEB", "group": "fengyun-1c-debris", "lat": -40.6536793473931, "lon": -153.2571949080844, "alt_km": 761.6681531329987, "timestamp": "2025-12-15T04:01:20.738283+00:00", "meta": {"OBJECT_NAME": "FENGYUN 1C DEB", "OBJECT_ID": "1999-025DDW", "EPOCH": "2025-12-13T20:55:05.593728", "MEAN_MOTION": 14.36759768, "ECCENTRICITY": 0.00830796, "INCLINATION": 98.4929, "RA_OF_ASC_NODE": 32.8364, "ARG_OF_PERICENTER": 148.1698, "MEAN_ANOMALY": 212.4548, "EPHEMERIS_TYPE": 0, "CLASSIFICATION_TYPE": "U", "NORAD_CAT_ID": 33637, "ELEMENT_SET_NO": 999, "REV_AT_EPOCH": 64854, "BSTAR": 0.0014619922, "MEAN_MOTION_DOT": 4.446e-05, "MEAN_MOTION_DDOT": 0}, "tle": {"line1": "1 33637U 99025DDW 25347.87159252  .00004446  00000+0  14620-2 0  9999", "line2": "2 33637  98.4929  32.8364 0083079 148.1698 212.4548 14.36759768648544"}}, "geometry": {"type": "Point", "coordinates": [-153.2571949080844, -40.6536793473931]}}, {"type": "Feature", "properties": {"norad_id": 33638, "name": "FENGYUN 1C DEB", "group": "fengyun-1c-debris", "lat": 57.48243936583702, "lon": 73.07588770072341, "alt_km": 1155.0771498455933, "timestamp": "2025-12-15T04:01:20.738293+00:00", "meta": {"OBJECT_NAME": "FENGYUN 1C DEB", "OBJECT_ID": "1999-025DDX", "EPOCH": "2025-12-11T22:14:50.921664", "MEAN_MOTION": 13.69308763, "ECCENTRICITY": 0.0264805, "INCLINATION": 98.4644, "RA_OF_ASC_NODE": 236.7162, "ARG_OF_PERICENTER": 275.2453, "MEAN_ANOMALY": 81.8534, "EPHEMERIS_TYPE": 0, "CLASSIFICATION_TYPE": "U", "NORAD_CAT_ID": 33638, "ELEMENT_SET_NO": 999, "REV_AT_EPOCH": 60904, "BSTAR": 0.0019789, "MEAN_MOTION_DOT": 2.159e-05, "MEAN_MOTION_DDOT": 0}, "tle": {"line1": "1 33638U 99025DDX 25345.92697826  .00002159  00000+0  19789-2 0  9998", "line2": "2 33638  98.4644 236.7162 0264805 275.2453  81.8534 13.69308763609044"}}, "geometry": {"type": "Point", "coordinates": [73.07588770072341, 57.48243936583702]}}, {"type": "Feature", "properties": {"norad_id": 33639, "name": "FENGYUN 1C DEB", "group": "fengyun-1c-debris", "lat": -32.533159130981765, "lon": 85.80375119778644, "alt_km": 737.9087280671574, "timestamp": "2025-12-15T04:01:20.738304+00:00", "meta": {"OBJECT_NAME": "FENGYUN 1C DEB", "OBJECT_ID": "1999-025DDY", "EPOCH": "2025-12-03T23:45:48.189312", "MEAN_MOTION": 14.40248408, "ECCENTRICITY": 0.00493059, "INCLINATION": 98.7136, "RA_OF_ASC_NODE": 68.813, "ARG_OF_PERICENTER": 315.1865, "MEAN_ANOMALY": 44.5345, "EPHEMERIS_TYPE": 0, "CLASSIFICATION_TYPE": "U", "NORAD_CAT_ID": 33639, "ELEMENT_SET_NO": 999, "REV_AT_EPOCH": 60456, "BSTAR": 0.0043899516, "MEAN_MOTION_DOT": 0.00014079, "MEAN_MOTION_DDOT": 0}, "tle": {"line1": "1 33639U 99025DDY 25337.99014108  .00014079  00000+0  43900-2 0  9999", "line2": "2 33639  98.7136  68.8130 0049305 315.1865  44.5345 14.40248408604567"}}, "geometry": {"type": "Point", "coordinates": [85.80375119778644, -32.533159130981765]}}, {"type": "Feature", "properties": {"norad_id": 33640, "name": "FENGYUN 1C DEB", "group": "fengyun-1c-debris", "lat": -21.305284778608623, "lon": 108.54271972294218, "alt_km": 701.6717249078602, "timestamp": "2025-12-15T04:01:20.738314+00:00", "meta": {"OBJECT_NAME": "FENGYUN 1C DEB", "OBJECT_ID": "1999-025DDZ", "EPOCH": "2025-12-11T19:22:45.041664", "MEAN_MOTION": 14.45889666, "ECCENTRICITY": 0.00906976, "INCLINATION": 98.8406, "RA_OF_ASC_NODE": 288.5217, "ARG_OF_PERICENTER": 162.4466, "MEAN_ANOMALY": 197.9894, "EPHEMERIS_TYPE": 0, "CLASSIFICATION_TYPE": "U", "NORAD_CAT_ID": 33640, "ELEMENT_SET_NO": 999, "REV_AT_EPOCH": 92329, "BSTAR": 0.00074722735, "MEAN_MOTION_DOT": 2.744e-05, "MEAN_MOTION_DDOT": 0}, "tle": {"line1": "1 33640U 99025DDZ 25345.80746576  .00002744  00000+0  74723-3 0  9995", "line2": "2 33640  98.8406 288.5217 0090697 162.4466 197.9894 14.45889666923295"}}, "geometry": {"type": "Point", "coordinates": [108.54271972294218, -21.305284778608623]}}, {"type": "Feature", "properties": {"norad_id": 33648, "name": "FENGYUN 1C DEB", "group": "fengyun-1c-debris", "lat": -9.385011651097985, "lon": 166.33420107242495, "alt_km": 811.1201302698255, "timestamp": "2025-12-15T04:01:20.738324+00:00", "meta": {"OBJECT_NAME": "FENGYUN 1C DEB", "OBJECT_ID": "1999-025DEH", "EPOCH": "2025-12-13T05:12:17.232768", "MEAN_MOTION": 14.11775748, "ECCENTRICITY": 0.00689043, "INCLINATION": 98.7195, "RA_OF_ASC_NODE": 345.8916, "ARG_OF_PERICENTER": 172.8018, "MEAN_ANOMALY": 187.416, "EPHEMERIS_TYPE": 0, "CLASSIFICATION_TYPE": "U", "NORAD_CAT_ID": 33648, "ELEMENT_SET_NO": 999, "REV_AT_EPOCH": 64383, "BSTAR": 0.00020305891, "MEAN_MOTION_DOT": 3.36e-06, "MEAN_MOTION_DDOT": 0}, "tle": {"line1": "1 33648U 99025DEH 25347.21686612  .00000336  00000+0  20306-3 0  9997", "line2": "2 33648  98.7195 345.8916 0068904 172.8018 187.4160 14.11775748643831"}}, "geometry": {"type": "Point", "coordinates": [166.33420107242495, -9.385011651097985]}}]}